ONEWEB-0311             
1 49097U 21075Y   24204.20410101  .00000029  00000+0  41208-4 0  9994
2 49097  87.9190 144.2431 0002287  90.9097 269.2296 13.17647394143107
ONEWEB-0312             
1 49098U 21075Z   24203.91490855  .00000042  00000+0  76235-4 0  9999
2 49098  87.9193 144.3324 0001907  94.8347 265.3002 13.17648753142046
ONEWEB-0313             
1 49099U 21075AA  24204.19603621 -.00000028  00000+0 -10535-3 0  9994
2 49099  87.9189 144.2790 0001988  87.7770 272.3589 13.17648127143075
ONEWEB-0314             
1 49100U 21075AB  24204.34143756  .00000083  00000+0  18004-3 0  9990
2 49100  87.9185 144.2068 0001981  93.2039 266.9319 13.17648170143051
ONEWEB-0315             
1 49101U 21075AC  24204.15514797  .00000328  00000+0  87624-3 0  9993
2 49101  87.8949 129.0730 0002077  75.6010 284.5349 13.12445374145008
ONEWEB-0316             
1 49102U 21075AD  24203.75136925  .00000024  00000+0  29170-4 0  9998
2 49102  87.9149 113.9113 0002051  81.8291 278.3073 13.18684523145553
ONEWEB-0317             
1 49103U 21075AE  24204.22489368  .00000065  00000+0  14514-3 0  9994
2 49103  87.8952 129.0692 0001704  64.4486 295.6819 13.12445563145027
ONEWEB-0318             
1 49104U 21075AF  24203.82408389  .00000030  00000+0  42739-4 0  9997
2 49104  87.9146 113.8895 0002129  84.0541 276.0834 13.18684547145520
