<?xml version="1.0" encoding="UTF-8"?>
<ndm xmlns:xsi="http://www.w3.org/2001/XMLSchema-instance" xsi:noNamespaceSchemaLocation="https://sanaregistry.org/r/ndmxml_unqualified/ndmxml-2.0.0-master-2.0.xsd">
<omm id="CCSDS_OMM_VERS" version="2.0">
<header><CREATION_DATE/><ORIGINATOR/></header><body><segment><metadata><OBJECT_NAME>ONEWEB-0311</OBJECT_NAME><OBJECT_ID>2021-075Y</OBJECT_ID><CENTER_NAME>EARTH</CENTER_NAME><REF_FRAME>TEME</REF_FRAME><TIME_SYSTEM>UTC</TIME_SYSTEM><MEAN_ELEMENT_THEORY>SGP4</MEAN_ELEMENT_THEORY></metadata><data><meanElements><EPOCH>2024-07-22T04:53:54.327264</EPOCH><MEAN_MOTION>13.17647394</MEAN_MOTION><ECCENTRICITY>.0002287</ECCENTRICITY><INCLINATION>87.9190</INCLINATION><RA_OF_ASC_NODE>144.2431</RA_OF_ASC_NODE><ARG_OF_PERICENTER>90.9097</ARG_OF_PERICENTER><MEAN_ANOMALY>269.2296</MEAN_ANOMALY></meanElements><tleParameters><EPHEMERIS_TYPE>0</EPHEMERIS_TYPE><CLASSIFICATION_TYPE>U</CLASSIFICATION_TYPE><NORAD_CAT_ID>49097</NORAD_CAT_ID><ELEMENT_SET_NO>999</ELEMENT_SET_NO><REV_AT_EPOCH>14310</REV_AT_EPOCH><BSTAR>.41208E-4</BSTAR><MEAN_MOTION_DOT>.29E-6</MEAN_MOTION_DOT><MEAN_MOTION_DDOT>0</MEAN_MOTION_DDOT></tleParameters></data></segment></body></omm>
<omm id="CCSDS_OMM_VERS" version="2.0">
<header><CREATION_DATE/><ORIGINATOR/></header><body><segment><metadata><OBJECT_NAME>ONEWEB-0312</OBJECT_NAME><OBJECT_ID>2021-075Z</OBJECT_ID><CENTER_NAME>EARTH</CENTER_NAME><REF_FRAME>TEME</REF_FRAME><TIME_SYSTEM>UTC</TIME_SYSTEM><MEAN_ELEMENT_THEORY>SGP4</MEAN_ELEMENT_THEORY></metadata><data><meanElements><EPOCH>2024-07-21T21:57:28.098720</EPOCH><MEAN_MOTION>13.17648753</MEAN_MOTION><ECCENTRICITY>.0001907</ECCENTRICITY><INCLINATION>87.9193</INCLINATION><RA_OF_ASC_NODE>144.3324</RA_OF_ASC_NODE><ARG_OF_PERICENTER>94.8347</ARG_OF_PERICENTER><MEAN_ANOMALY>265.3002</MEAN_ANOMALY></meanElements><tleParameters><EPHEMERIS_TYPE>0</EPHEMERIS_TYPE><CLASSIFICATION_TYPE>U</CLASSIFICATION_TYPE><NORAD_CAT_ID>49098</NORAD_CAT_ID><ELEMENT_SET_NO>999</ELEMENT_SET_NO><REV_AT_EPOCH>14204</REV_AT_EPOCH><BSTAR>.76235E-4</BSTAR><MEAN_MOTION_DOT>.42E-6</MEAN_MOTION_DOT><MEAN_MOTION_DDOT>0</MEAN_MOTION_DDOT></tleParameters></data></segment></body></omm>
<omm id="CCSDS_OMM_VERS" version="2.0">
<header><CREATION_DATE/><ORIGINATOR/></header><body><segment><metadata><OBJECT_NAME>ONEWEB-0313</OBJECT_NAME><OBJECT_ID>2021-075AA</OBJECT_ID><CENTER_NAME>EARTH</CENTER_NAME><REF_FRAME>TEME</REF_FRAME><TIME_SYSTEM>UTC</TIME_SYSTEM><MEAN_ELEMENT_THEORY>SGP4</MEAN_ELEMENT_THEORY></metadata><data><meanElements><EPOCH>2024-07-22T04:42:17.528544</EPOCH><MEAN_MOTION>13.17648127</MEAN_MOTION><ECCENTRICITY>.0001988</ECCENTRICITY><INCLINATION>87.9189</INCLINATION><RA_OF_ASC_NODE>144.2790</RA_OF_ASC_NODE><ARG_OF_PERICENTER>87.7770</ARG_OF_PERICENTER><MEAN_ANOMALY>272.3589</MEAN_ANOMALY></meanElements><tleParameters><EPHEMERIS_TYPE>0</EPHEMERIS_TYPE><CLASSIFICATION_TYPE>U</CLASSIFICATION_TYPE><NORAD_CAT_ID>49099</NORAD_CAT_ID><ELEMENT_SET_NO>999</ELEMENT_SET_NO><REV_AT_EPOCH>14307</REV_AT_EPOCH><BSTAR>-.10535E-3</BSTAR><MEAN_MOTION_DOT>-.28E-6</MEAN_MOTION_DOT><MEAN_MOTION_DDOT>0</MEAN_MOTION_DDOT></tleParameters></data></segment></body></omm>
<omm id="CCSDS_OMM_VERS" version="2.0">
<header><CREATION_DATE/><ORIGINATOR/></header><body><segment><metadata><OBJECT_NAME>ONEWEB-0314</OBJECT_NAME><OBJECT_ID>2021-075AB</OBJECT_ID><CENTER_NAME>EARTH</CENTER_NAME><REF_FRAME>TEME</REF_FRAME><TIME_SYSTEM>UTC</TIME_SYSTEM><MEAN_ELEMENT_THEORY>SGP4</MEAN_ELEMENT_THEORY></metadata><data><meanElements><EPOCH>2024-07-22T08:11:40.205184</EPOCH><MEAN_MOTION>13.17648170</MEAN_MOTION><ECCENTRICITY>.0001981</ECCENTRICITY><INCLINATION>87.9185</INCLINATION><RA_OF_ASC_NODE>144.2068</RA_OF_ASC_NODE><ARG_OF_PERICENTER>93.2039</ARG_OF_PERICENTER><MEAN_ANOMALY>266.9319</MEAN_ANOMALY></meanElements><tleParameters><EPHEMERIS_TYPE>0</EPHEMERIS_TYPE><CLASSIFICATION_TYPE>U</CLASSIFICATION_TYPE><NORAD_CAT_ID>49100</NORAD_CAT_ID><ELEMENT_SET_NO>999</ELEMENT_SET_NO><REV_AT_EPOCH>14305</REV_AT_EPOCH><BSTAR>.18004E-3</BSTAR><MEAN_MOTION_DOT>.83E-6</MEAN_MOTION_DOT><MEAN_MOTION_DDOT>0</MEAN_MOTION_DDOT></tleParameters></data></segment></body></omm>
<omm id="CCSDS_OMM_VERS" version="2.0">
<header><CREATION_DATE/><ORIGINATOR/></header><body><segment><metadata><OBJECT_NAME>ONEWEB-0315</OBJECT_NAME><OBJECT_ID>2021-075AC</OBJECT_ID><CENTER_NAME>EARTH</CENTER_NAME><REF_FRAME>TEME</REF_FRAME><TIME_SYSTEM>UTC</TIME_SYSTEM><MEAN_ELEMENT_THEORY>SGP4</MEAN_ELEMENT_THEORY></metadata><data><meanElements><EPOCH>2024-07-22T03:43:24.784608</EPOCH><MEAN_MOTION>13.12445374</MEAN_MOTION><ECCENTRICITY>.0002077</ECCENTRICITY><INCLINATION>87.8949</INCLINATION><RA_OF_ASC_NODE>129.0730</RA_OF_ASC_NODE><ARG_OF_PERICENTER>75.6010</ARG_OF_PERICENTER><MEAN_ANOMALY>284.5349</MEAN_ANOMALY></meanElements><tleParameters><EPHEMERIS_TYPE>0</EPHEMERIS_TYPE><CLASSIFICATION_TYPE>U</CLASSIFICATION_TYPE><NORAD_CAT_ID>49101</NORAD_CAT_ID><ELEMENT_SET_NO>999</ELEMENT_SET_NO><REV_AT_EPOCH>14500</REV_AT_EPOCH><BSTAR>.87624E-3</BSTAR><MEAN_MOTION_DOT>.328E-5</MEAN_MOTION_DOT><MEAN_MOTION_DDOT>0</MEAN_MOTION_DDOT></tleParameters></data></segment></body></omm>
<omm id="CCSDS_OMM_VERS" version="2.0">
<header><CREATION_DATE/><ORIGINATOR/></header><body><segment><metadata><OBJECT_NAME>ONEWEB-0316</OBJECT_NAME><OBJECT_ID>2021-075AD</OBJECT_ID><CENTER_NAME>EARTH</CENTER_NAME><REF_FRAME>TEME</REF_FRAME><TIME_SYSTEM>UTC</TIME_SYSTEM><MEAN_ELEMENT_THEORY>SGP4</MEAN_ELEMENT_THEORY></metadata><data><meanElements><EPOCH>2024-07-21T18:01:58.303200</EPOCH><MEAN_MOTION>13.18684523</MEAN_MOTION><ECCENTRICITY>.0002051</ECCENTRICITY><INCLINATION>87.9149</INCLINATION><RA_OF_ASC_NODE>113.9113</RA_OF_ASC_NODE><ARG_OF_PERICENTER>81.8291</ARG_OF_PERICENTER><MEAN_ANOMALY>278.3073</MEAN_ANOMALY></meanElements><tleParameters><EPHEMERIS_TYPE>0</EPHEMERIS_TYPE><CLASSIFICATION_TYPE>U</CLASSIFICATION_TYPE><NORAD_CAT_ID>49102</NORAD_CAT_ID><ELEMENT_SET_NO>999</ELEMENT_SET_NO><REV_AT_EPOCH>14555</REV_AT_EPOCH><BSTAR>.2917E-4</BSTAR><MEAN_MOTION_DOT>.24E-6</MEAN_MOTION_DOT><MEAN_MOTION_DDOT>0</MEAN_MOTION_DDOT></tleParameters></data></segment></body></omm>
<omm id="CCSDS_OMM_VERS" version="2.0">
<header><CREATION_DATE/><ORIGINATOR/></header><body><segment><metadata><OBJECT_NAME>ONEWEB-0317</OBJECT_NAME><OBJECT_ID>2021-075AE</OBJECT_ID><CENTER_NAME>EARTH</CENTER_NAME><REF_FRAME>TEME</REF_FRAME><TIME_SYSTEM>UTC</TIME_SYSTEM><MEAN_ELEMENT_THEORY>SGP4</MEAN_ELEMENT_THEORY></metadata><data><meanElements><EPOCH>2024-07-22T05:23:50.813952</EPOCH><MEAN_MOTION>13.12445563</MEAN_MOTION><ECCENTRICITY>.0001704</ECCENTRICITY><INCLINATION>87.8952</INCLINATION><RA_OF_ASC_NODE>129.0692</RA_OF_ASC_NODE><ARG_OF_PERICENTER>64.4486</ARG_OF_PERICENTER><MEAN_ANOMALY>295.6819</MEAN_ANOMALY></meanElements><tleParameters><EPHEMERIS_TYPE>0</EPHEMERIS_TYPE><CLASSIFICATION_TYPE>U</CLASSIFICATION_TYPE><NORAD_CAT_ID>49103</NORAD_CAT_ID><ELEMENT_SET_NO>999</ELEMENT_SET_NO><REV_AT_EPOCH>14502</REV_AT_EPOCH><BSTAR>.14514E-3</BSTAR><MEAN_MOTION_DOT>.65E-6</MEAN_MOTION_DOT><MEAN_MOTION_DDOT>0</MEAN_MOTION_DDOT></tleParameters></data></segment></body></omm>
<omm id="CCSDS_OMM_VERS" version="2.0">
<header><CREATION_DATE/><ORIGINATOR/></header><body><segment><metadata><OBJECT_NAME>ONEWEB-0318</OBJECT_NAME><OBJECT_ID>2021-075AF</OBJECT_ID><CENTER_NAME>EARTH</CENTER_NAME><REF_FRAME>TEME</REF_FRAME><TIME_SYSTEM>UTC</TIME_SYSTEM><MEAN_ELEMENT_THEORY>SGP4</MEAN_ELEMENT_THEORY></metadata><data><meanElements><EPOCH>2024-07-21T19:46:40.848096</EPOCH><MEAN_MOTION>13.18684547</MEAN_MOTION><ECCENTRICITY>.0002129</ECCENTRICITY><INCLINATION>87.9146</INCLINATION><RA_OF_ASC_NODE>113.8895</RA_OF_ASC_NODE><ARG_OF_PERICENTER>84.0541</ARG_OF_PERICENTER><MEAN_ANOMALY>276.0834</MEAN_ANOMALY></meanElements><tleParameters><EPHEMERIS_TYPE>0</EPHEMERIS_TYPE><CLASSIFICATION_TYPE>U</CLASSIFICATION_TYPE><NORAD_CAT_ID>49104</NORAD_CAT_ID><ELEMENT_SET_NO>999</ELEMENT_SET_NO><REV_AT_EPOCH>14552</REV_AT_EPOCH><BSTAR>.42739E-4</BSTAR><MEAN_MOTION_DOT>.3E-6</MEAN_MOTION_DOT><MEAN_MOTION_DDOT>0</MEAN_MOTION_DDOT></tleParameters></data></segment></body></omm>

</ndm>
